[
  {
    "name": "STARLINK-32539",
    "noradId": "62022",
    "line1": "1 62022U 24213Q   26179.75831019  .00013731  00000+0  47487-3 0  9990",
    "line2": "2 62022  53.1599 359.7029 0001579  88.5214 271.5968 15.30200052 90332"
  },
  {
    "name": "STARLINK-32334",
    "noradId": "62023",
    "line1": "1 62023U 24213R   26179.82092551  .00014569  00000+0  50288-3 0  9992",
    "line2": "2 62023  53.1595  11.6350 0000983  86.7952 273.3161 15.30210436 90171"
  },
  {
    "name": "STARLINK-32504",
    "noradId": "62024",
    "line1": "1 62024U 24213S   26179.70718196  .00015851  00000+0  54605-3 0  9992",
    "line2": "2 62024  53.1593  12.3538 0001113  66.2478 293.8640 15.30205796 90158"
  },
  {
    "name": "STARLINK-32493",
    "noradId": "62025",
    "line1": "1 62025U 24213T   26180.52059950  .00027532  00000+0  82281-3 0  9991",
    "line2": "2 62025  53.1606   7.4805 0000867  70.5796 289.5300 15.34406751 90290"
  },
  {
    "name": "STARLINK-32561",
    "noradId": "62026",
    "line1": "1 62026U 24213U   26179.90945660  .00018560  00000+0  63708-3 0  9998",
    "line2": "2 62026  53.1591  11.4794 0001142  95.7136 264.3995 15.30206138 90182"
  },
  {
    "name": "STARLINK-32512",
    "noradId": "62027",
    "line1": "1 62027U 24213V   26179.95894100  .00014156  00000+0  48908-3 0  9998",
    "line2": "2 62027  53.1582  11.0768 0001159 103.9265 256.1864 15.30204146 90195"
  },
  {
    "name": "STARLINK-32637",
    "noradId": "62032",
    "line1": "1 62032U 24216A   26180.52305637  .00016665  00000+0  61364-3 0  9992",
    "line2": "2 62032  43.0006 344.3563 0001242 242.2745 117.7980 15.27585349 90989"
  },
  {
    "name": "STARLINK-32582",
    "noradId": "62033",
    "line1": "1 62033U 24216B   26180.55935293  .00024592  00000+0  89979-3 0  9993",
    "line2": "2 62033  43.0004 351.5550 0001082 276.3408  83.7320 15.27595009 90906"
  },
  {
    "name": "STARLINK-32615",
    "noradId": "62034",
    "line1": "1 62034U 24216C   26179.77696788  .00014151  00000+0  52257-3 0  9998",
    "line2": "2 62034  43.0025 349.0789 0001046 265.6005  94.4727 15.27593839 89705"
  },
  {
    "name": "STARLINK-32592",
    "noradId": "62035",
    "line1": "1 62035U 24216D   26180.51966437  .00026387  00000+0  96474-3 0  9997",
    "line2": "2 62035  43.0009 352.1139 0000982 227.4930 132.5839 15.27588325 90909"
  },
  {
    "name": "STARLINK-32225",
    "noradId": "62036",
    "line1": "1 62036U 24216E   26179.78082089  .00012566  00000+0  46514-3 0  9991",
    "line2": "2 62036  43.0009 349.1089 0000743 278.8526  81.2242 15.27598402 90934"
  },
  {
    "name": "STARLINK-32595",
    "noradId": "62037",
    "line1": "1 62037U 24216F   26180.50809824  .00017587  00000+0  64695-3 0  9996",
    "line2": "2 62037  42.9989 352.0273 0001213 263.8132  96.2581 15.27587909 90907"
  },
  {
    "name": "STARLINK-32477",
    "noradId": "62038",
    "line1": "1 62038U 24216G   26180.50003471  .00154782  16480-4  58978-3 0  9991",
    "line2": "2 62038  42.9826 308.4988 0029250 346.6077 280.0511 15.86223723  5969"
  },
  {
    "name": "STARLINK-32480",
    "noradId": "62039",
    "line1": "1 62039U 24216H   26179.52181934  .00019179  00000+0  70314-3 0  9997",
    "line2": "2 62039  43.0024 350.6034 0001609 271.3213  88.7455 15.27649984 89662"
  },
  {
    "name": "STARLINK-32510",
    "noradId": "62040",
    "line1": "1 62040U 24216J   26180.53379856  .00016345  00000+0  60198-3 0  9995",
    "line2": "2 62040  43.0028 352.2203 0002042 279.0269  81.0351 15.27589361 90892"
  },
  {
    "name": "STARLINK-32456",
    "noradId": "62041",
    "line1": "1 62041U 24216K   26180.50649939  .00015605  00000+0  57517-3 0  9994",
    "line2": "2 62041  43.0027 345.0946 0001619 276.8716  83.1951 15.27591896 90971"
  },
  {
    "name": "STARLINK-32509",
    "noradId": "62042",
    "line1": "1 62042U 24216L   26179.50899679  .00015344  00000+0  56574-3 0  9993",
    "line2": "2 62042  42.9990 350.5079 0000316 298.3869  61.6951 15.27591123 90826"
  },
  {
    "name": "STARLINK-32491",
    "noradId": "62043",
    "line1": "1 62043U 24216M   26180.52994490  .00012718  00000+0  47076-3 0  9994",
    "line2": "2 62043  43.0007 352.1897 0000897 257.9848 102.0903 15.27589053 90899"
  },
  {
    "name": "STARLINK-32577",
    "noradId": "62044",
    "line1": "1 62044U 24216N   26179.84652477  .00022171  00000+0  81257-3 0  9997",
    "line2": "2 62044  43.0005 355.6634 0001488 265.5205  94.5477 15.27588561 90809"
  },
  {
    "name": "STARLINK-32618",
    "noradId": "62045",
    "line1": "1 62045U 24216P   26180.49878513  .00026882  00000+0  98222-3 0  9995",
    "line2": "2 62045  43.0016 345.0283 0000718 274.4728  85.6042 15.27601090 90979"
  },
  {
    "name": "STARLINK-32598",
    "noradId": "62046",
    "line1": "1 62046U 24216Q   26179.53583064  .00013514  00000+0  49952-3 0  9997",
    "line2": "2 62046  43.0025 349.8458 0001436 248.3039 111.7660 15.27592656 90838"
  },
  {
    "name": "STARLINK-32630",
    "noradId": "62047",
    "line1": "1 62047U 24216R   26179.85808624  .00022307  00000+0  81739-3 0  9994",
    "line2": "2 62047  43.0021 355.7473 0001709 267.7489  92.3167 15.27591652 90791"
  },
  {
    "name": "STARLINK-32599",
    "noradId": "62048",
    "line1": "1 62048U 24216S   26180.51580280  .00011749  00000+0  43546-3 0  9997",
    "line2": "2 62048  43.0037 352.0806 0003694 143.6070 216.5033 15.27603300 90899"
  },
  {
    "name": "STARLINK-32473",
    "noradId": "62049",
    "line1": "1 62049U 24216T   26179.83849985  .00022849  00000+0  83706-3 0  9996",
    "line2": "2 62049  43.0018 348.6780 0001467 279.7119  80.3567 15.27587209 89719"
  },
  {
    "name": "STARLINK-32492",
    "noradId": "62050",
    "line1": "1 62050U 24216U   26180.55549619  .00015449  00000+0  56960-3 0  9990",
    "line2": "2 62050  42.9995 351.5207 0001618 268.3782  91.6885 15.27588602 90907"
  },
  {
    "name": "STARLINK-32496",
    "noradId": "62051",
    "line1": "1 62051U 24216V   26180.52608896  .00025784  00000+0  94324-3 0  9990",
    "line2": "2 62051  43.0019 352.1603 0001122 268.5495  91.5228 15.27579899 90893"
  },
  {
    "name": "STARLINK-32495",
    "noradId": "62052",
    "line1": "1 62052U 24216W   26180.53749466  .00020593  00000+0  75516-3 0  9996",
    "line2": "2 62052  43.0030 351.3835 0001846 281.8247  78.2398 15.27606254 90909"
  },
  {
    "name": "STARLINK-32494",
    "noradId": "62053",
    "line1": "1 62053U 24216X   26179.84395312  .00009554  00000+0  35613-3 0  9994",
    "line2": "2 62053  42.9987 355.6425 0000944 275.9467  84.1277 15.27590419 90791"
  },
  {
    "name": "STARLINK-32408",
    "noradId": "62054",
    "line1": "1 62054U 24216Y   26179.83464448  .00032497  00000+0  11842-2 0  9990",
    "line2": "2 62054  43.0018 348.6477 0001934 273.3944  86.6687 15.27609483 90884"
  },
  {
    "name": "STARLINK-32571",
    "noradId": "62055",
    "line1": "1 62055U 24216Z   26180.51277845  .00014347  00000+0  52981-3 0  9995",
    "line2": "2 62055  43.0022 344.2757 0002029 266.6370  93.4250 15.27584160 91086"
  }
]