OBJECT_NAME,OBJECT_ID,EPOCH,MEAN_MOTION,ECCENTRICITY,INCLINATION,RA_OF_ASC_NODE,ARG_OF_PERICENTER,MEAN_ANOMALY,EPHEMERIS_TYPE,CLASSIFICATION_TYPE,NORAD_CAT_ID,ELEMENT_SET_NO,REV_AT_EPOCH,BSTAR,MEAN_MOTION_DOT,MEAN_MOTION_DDOT
STARLINK-32539,2024-213Q,2026-06-28T18:11:58.000416,15.30200052,.00015795,53.1599,359.7029,88.5214,271.5968,0,U,62022,999,9033,.47487182E-3,.13731E-3,0
STARLINK-32334,2024-213R,2026-06-28T19:42:07.964064,15.30210436,.00009837,53.1595,11.6350,86.7952,273.3161,0,U,62023,999,9017,.50288281E-3,.14569E-3,0
STARLINK-32504,2024-213S,2026-06-28T16:58:20.521344,15.30205796,.00011132,53.1593,12.3538,66.2478,293.8640,0,U,62024,999,9015,.54605019E-3,.15851E-3,0
STARLINK-32493,2024-213T,2026-06-29T12:29:39.796800,15.34406751,.0000867,53.1606,7.4805,70.5796,289.5300,0,U,62025,999,9029,.82281E-3,.27532E-3,0
STARLINK-32561,2024-213U,2026-06-28T21:49:37.050240,15.30206138,.00011421,53.1591,11.4794,95.7136,264.3995,0,U,62026,999,9018,.63708177E-3,.1856E-3,0
STARLINK-32512,2024-213V,2026-06-28T23:00:52.502400,15.30204146,.00011599,53.1582,11.0768,103.9265,256.1864,0,U,62027,999,9019,.48908148E-3,.14156E-3,0
STARLINK-32637,2024-216A,2026-06-29T12:33:12.070368,15.27585349,.0001242,43.0006,344.3563,242.2745,117.7980,0,U,62032,999,9098,.61364E-3,.16665E-3,0
STARLINK-32582,2024-216B,2026-06-29T13:25:28.093152,15.27595009,.0001082,43.0004,351.5550,276.3408,83.7320,0,U,62033,999,9090,.89979E-3,.24592E-3,0
STARLINK-32615,2024-216C,2026-06-28T18:38:50.024832,15.27593839,.0001046,43.0025,349.0789,265.6005,94.4727,0,U,62034,999,8970,.52256892E-3,.14151E-3,0
STARLINK-32592,2024-216D,2026-06-29T12:28:19.001568,15.27588325,.0000982,43.0009,352.1139,227.4930,132.5839,0,U,62035,999,9090,.96474E-3,.26387E-3,0
STARLINK-32225,2024-216E,2026-06-28T18:44:22.924896,15.27598402,.00007433,43.0009,349.1089,278.8526,81.2242,0,U,62036,999,9093,.46513556E-3,.12566E-3,0
STARLINK-32595,2024-216F,2026-06-29T12:11:39.687936,15.27587909,.0001213,42.9989,352.0273,263.8132,96.2581,0,U,62037,999,9090,.64695E-3,.17587E-3,0
STARLINK-32477,2024-216G,2026-06-29T12:00:02.998944,15.86223723,.002925,42.9826,308.4988,346.6077,280.0511,0,U,62038,999,596,.58978E-3,.154782E-2,.1648E-4
STARLINK-32480,2024-216H,2026-06-28T12:31:25.190976,15.27649984,.00016091,43.0024,350.6034,271.3213,88.7455,0,U,62039,999,8966,.70314388E-3,.19179E-3,0
STARLINK-32510,2024-216J,2026-06-29T12:48:40.195584,15.27589361,.0002042,43.0028,352.2203,279.0269,81.0351,0,U,62040,999,9089,.60198E-3,.16345E-3,0
STARLINK-32456,2024-216K,2026-06-29T12:09:21.547296,15.27591896,.0001619,43.0027,345.0946,276.8716,83.1951,0,U,62041,999,9097,.57517E-3,.15605E-3,0
STARLINK-32509,2024-216L,2026-06-28T12:12:57.322656,15.27591123,.00003166,42.9990,350.5079,298.3869,61.6951,0,U,62042,999,9082,.56574011E-3,.15344E-3,0
STARLINK-32491,2024-216M,2026-06-29T12:43:07.239360,15.27589053,.0000897,43.0007,352.1897,257.9848,102.0903,0,U,62043,999,9089,.47076E-3,.12718E-3,0
STARLINK-32577,2024-216N,2026-06-28T20:18:59.740128,15.27588561,.00014883,43.0005,355.6634,265.5205,94.5477,0,U,62044,999,9080,.81256573E-3,.22171E-3,0
STARLINK-32618,2024-216P,2026-06-29T11:58:15.035232,15.27601090,.0000718,43.0016,345.0283,274.4728,85.6042,0,U,62045,999,9097,.98222E-3,.26882E-3,0
STARLINK-32598,2024-216Q,2026-06-28T12:51:35.767296,15.27592656,.00014368,43.0025,349.8458,248.3039,111.7660,0,U,62046,999,9083,.49951574E-3,.13514E-3,0
STARLINK-32630,2024-216R,2026-06-28T20:35:38.651136,15.27591652,.00017098,43.0021,355.7473,267.7489,92.3167,0,U,62047,999,9079,.81739161E-3,.22307E-3,0
STARLINK-32599,2024-216S,2026-06-29T12:22:45.361920,15.27603300,.0003694,43.0037,352.0806,143.6070,216.5033,0,U,62048,999,9089,.43546E-3,.11749E-3,0
STARLINK-32473,2024-216T,2026-06-28T20:07:26.387040,15.27587209,.00014671,43.0018,348.6780,279.7119,80.3567,0,U,62049,999,8971,.8370635E-3,.22849E-3,0
STARLINK-32492,2024-216U,2026-06-29T13:19:54.870816,15.27588602,.0001618,42.9995,351.5207,268.3782,91.6885,0,U,62050,999,9090,.5696E-3,.15449E-3,0
STARLINK-32496,2024-216V,2026-06-29T12:37:34.086144,15.27579899,.0001122,43.0019,352.1603,268.5495,91.5228,0,U,62051,999,9089,.94324E-3,.25784E-3,0
STARLINK-32495,2024-216W,2026-06-29T12:53:59.538624,15.27606254,.0001846,43.0030,351.3835,281.8247,78.2398,0,U,62052,999,9090,.75516E-3,.20593E-3,0
STARLINK-32494,2024-216X,2026-06-28T20:15:17.549568,15.27590419,.00009444,42.9987,355.6425,275.9467,84.1277,0,U,62053,999,9079,.35612752E-3,.9554E-4,0
STARLINK-32408,2024-216Y,2026-06-28T20:01:53.283072,15.27609483,.00019341,43.0018,348.6477,273.3944,86.6687,0,U,62054,999,9088,.11841774E-2,.32497E-3,0
STARLINK-32571,2024-216Z,2026-06-29T12:18:24.058080,15.27584160,.0002029,43.0022,344.2757,266.6370,93.4250,0,U,62055,999,9108,.52981E-3,.14347E-3,0
